NORAD_CAT_ID,OBJECT_NAME,OBJECT_TYPE,EPOCH,MEAN_MOTION,ECCENTRICITY,INCLINATION,RA_OF_ASC_NODE,ARG_OF_PERICENTER,MEAN_ANOMALY,BSTAR,MEAN_MOTION_DOT,MEAN_MOTION_DDOT,TLE_LINE0,TLE_LINE1,TLE_LINE2,SEMIMAJOR_AXIS,PERIOD,APOGEE,PERIGEE,DECAYED
52477.0,STARLINK-3860,PAYLOAD,2022-10-27 01:08:50,15.0883531,0.0002082,53.2162,169.1875,45.3298,314.7863,0.00028354,4.227e-05,0.0,0 STARLINK-3860,1 52477U 22049AC  22300.04780409  .00004227  00000-0  28354-3 0  9991,2 52477  53.2162 169.1875 0002082  45.3298 314.7863 15.08835310 27999,6917.895,95.438,541.2,538.319,0.0
52477.0,STARLINK-3860,PAYLOAD,2022-10-27 20:13:26,15.08854082,0.0002104,53.216,165.6189,46.793,313.3238,0.00032879,4.95e-05,0.0,0 STARLINK-3860,1 52477U 22049AC  22300.84267353  .00004950  00000-0  32879-3 0  9997,2 52477  53.2160 165.6189 0002104  46.7930 313.3238 15.08854082 28112,6917.837,95.437,541.158,538.247,0.0
52477.0,STARLINK-3860,PAYLOAD,2022-10-27 21:48:50,15.08860367,0.0002115,53.2149,165.3216,46.9997,313.1172,0.00046282,7.089e-05,0.0,0 STARLINK-3860,1 52477U 22049AC  22300.90891620  .00007089  00000-0  46282-3 0  9993,2 52477  53.2149 165.3216 0002115  46.9997 313.1172 15.08860367 27043,6917.818,95.436,541.146,538.22,0.0
52477.0,STARLINK-3860,PAYLOAD,2022-10-28 02:34:59,15.08858006,0.000206,53.215,164.4291,45.5512,314.5649,0.00034977,5.286e-05,0.0,0 STARLINK-3860,1 52477U 22049AC  22301.10763562  .00005286  00000-0  34977-3 0  9994,2 52477  53.2150 164.4291 0002060  45.5512 314.5649 15.08858006 28159,6917.825,95.436,541.115,538.265,0.0
52477.0,STARLINK-3860,PAYLOAD,2022-10-28 20:04:13,15.08857502,0.0001948,53.2148,161.1577,50.0094,310.1069,0.00012603,1.719e-05,0.0,0 STARLINK-3860,1 52477U 22049AC  22301.83626817  .00001719  00000-0  12603-3 0  9994,2 52477  53.2148 161.1577 0001948  50.0094 310.1069 15.08857502 28267,6917.8269999999975,95.436,541.039,538.344,0.0
52477.0,STARLINK-3860,PAYLOAD,2022-10-29 07:11:55,15.08852556,0.0002026,53.215,159.0765,45.9321,314.1838,-2.2274e-05,-6.43e-06,0.0,0 STARLINK-3860,1 52477U 22049AC  22302.29994517 -.00000643  00000-0 -22274-4 0  9993,2 52477  53.2150 159.0765 0002026  45.9321 314.1838 15.08852556 28339,6917.842,95.437,541.109,538.305,0.0
52477.0,STARLINK-3860,PAYLOAD,2022-10-29 19:54:59,15.0885433,0.0002056,53.2151,156.6979,47.2286,312.8879,-4.832e-05,-1.058e-05,0.0,0 STARLINK-3860,1 52477U 22049AC  22302.82986094 -.00001058  00000-0 -48320-4 0  9994,2 52477  53.2151 156.6979 0002056  47.2286 312.8879 15.08854330 28419,6917.837,95.437,541.124,538.279,0.0
52477.0,STARLINK-3860,PAYLOAD,2022-10-29 21:30:23,15.08854208,0.0002061,53.2151,156.4006,47.3435,312.7731,-4.7364e-05,-1.042e-05,0.0,0 STARLINK-3860,1 52477U 22049AC  22302.89610030 -.00001042  00000-0 -47364-4 0  9995,2 52477  53.2151 156.4006 0002061  47.3435 312.7731 15.08854208 27342,6917.837,95.437,541.128,538.276,0.0
52477.0,STARLINK-3860,PAYLOAD,2022-10-30 07:02:41,15.08859178,0.0002504,53.2166,154.6169,46.6953,313.4248,-2.0195e-05,-6.1e-06,0.0,0 STARLINK-3860,1 52477U 22049AC  22303.29353799 -.00000610  00000-0 -20195-4 0  9999,2 52477  53.2166 154.6169 0002504  46.6953 313.4248 15.08859178 28485,6917.821999999999,95.436,541.419,537.955,0.0
52477.0,STARLINK-3860,PAYLOAD,2022-10-30 21:21:11,15.08838302,0.0001973,53.216,151.94,43.5394,316.5753,-1.8092e-06,-3.17e-06,0.0,0 STARLINK-3860,1 52477U 22049AC  22303.88971167 -.00000317  00000-0 -18092-5 0  9997,2 52477  53.2160 151.9400 0001973  43.5394 316.5753 15.08838302 28572,6917.886,95.438,541.115,538.386,0.0
52477.0,STARLINK-3860,PAYLOAD,2022-10-31 06:53:29,15.08840784,0.0001996,53.2151,150.1558,43.2082,316.9066,2.9943e-05,1.88e-06,0.0,0 STARLINK-3860,1 52477U 22049AC  22304.28714648  .00000188  00000-0  29943-4 0  9991,2 52477  53.2151 150.1558 0001996  43.2082 316.9066 15.08840784 28638,6917.878000000002,95.438,541.124,538.362,0.0
52477.0,STARLINK-3860,PAYLOAD,2022-10-31 19:36:34,15.0884908,0.0001999,53.215,147.7768,43.1389,316.976,0.00023983,3.532e-05,0.0,0 STARLINK-3860,1 52477U 22049AC  22304.81706355  .00003532  00000-0  23983-3 0  9999,2 52477  53.2150 147.7768 0001999  43.1389 316.9760 15.08849080 28712,6917.853,95.437,541.101,538.335,0.0
52477.0,STARLINK-3860,PAYLOAD,2022-10-31 22:47:20,15.08835774,0.0001938,53.2147,147.1817,41.6441,318.4698,1.7595e-05,-8e-08,0.0,0 STARLINK-3860,1 52477U 22049AC  22304.94954860 -.00000008  00000-0  17595-4 0  9998,2 52477  53.2147 147.1817 0001938  41.6441 318.4698 15.08835774 27656,6917.893,95.438,541.099,538.418,0.0
52477.0,STARLINK-3860,PAYLOAD,2022-11-01 06:44:16,15.08836092,0.0001939,53.2145,145.696,43.918,316.1966,4.2227e-05,3.84e-06,0.0,0 STARLINK-3860,1 52477U 22049AC  22305.28074977  .00000384  00000-0  42227-4 0  9994,2 52477  53.2145 145.6960 0001939  43.9180 316.1966 15.08836092 28784,6917.892,95.438,541.099,538.4159999999998,0.0
52477.0,STARLINK-3860,PAYLOAD,2022-11-01 19:27:21,15.08841595,0.0002044,53.2147,143.3162,41.3205,318.7941,0.0001706,2.428e-05,0.0,0 STARLINK-3860,1 52477U 22049AC  22305.81066954  .00002428  00000-0  17060-3 0  9996,2 52477  53.2147 143.3162 0002044  41.3205 318.7941 15.08841595 28867,6917.876,95.437,541.155,538.326,0.0
52477.0,STARLINK-3860,PAYLOAD,2022-11-02 01:48:54,15.08848786,0.0002108,53.2147,142.1268,45.4066,314.7097,0.00033221,5.004e-05,0.0,0 STARLINK-3860,1 52477U 22049AC  22306.07562753  .00005004  00000-0  33221-3 0  9993,2 52477  53.2147 142.1268 0002108  45.4066 314.7097 15.08848786 27824,6917.854,95.437,541.177,538.26,0.0
52477.0,STARLINK-3860,PAYLOAD,2022-11-02 12:56:36,15.08839819,0.000221,53.2148,140.0451,48.5901,311.5281,0.00016613,2.357e-05,0.0,0 STARLINK-3860,1 52477U 22049AC  22306.53931064  .00002357  00000-0  16613-3 0  9993,2 52477  53.2148 140.0451 0002210  48.5901 311.5281 15.08839819 27896,6917.880999999999,95.438,541.275,538.217,0.0
52477.0,STARLINK-3860,PAYLOAD,2022-11-02 19:18:09,15.08838675,0.0002182,53.2148,138.8557,48.0941,312.0237,0.00011166,1.489e-05,0.0,0 STARLINK-3860,1 52477U 22049AC  22306.80427168  .00001489  00000-0  11166-3 0  9991,2 52477  53.2148 138.8557 0002182  48.0941 312.0237 15.08838675 29017,6917.884,95.438,541.259,538.24,0.0
52477.0,STARLINK-3860,PAYLOAD,2022-11-03 00:04:18,15.08833896,0.0002286,53.2149,137.9635,58.2557,301.8658,0.00039884,6.064e-05,0.0,0 STARLINK-3860,1 52477U 22049AC  22307.00299662  .00006064  00000-0  39884-3 0  9991,2 52477  53.2149 137.9635 0002286  58.2557 301.8658 15.08833896 27961,6917.899,95.438,541.345,538.183,0.0
52477.0,STARLINK-3860,PAYLOAD,2022-11-03 06:25:50,15.08843142,0.0002178,53.215,136.7739,48.3539,311.7639,0.00022041,3.222e-05,0.0,0 STARLINK-3860,1 52477U 22049AC  22307.26795113  .00003222  00000-0  22041-3 0  9991,2 52477  53.2150 136.7739 0002178  48.3539 311.7639 15.08843142 29084,6917.871,95.437,541.242,538.229,0.0
52477.0,STARLINK-3860,PAYLOAD,2022-11-03 19:08:55,15.0885399,0.0002186,53.2149,134.3944,49.7169,310.4014,0.00035411,5.354e-05,0.0,0 STARLINK-3860,1 52477U 22049AC  22307.79786563  .00005354  00000-0  35411-3 0  9991,2 52477  53.2149 134.3944 0002186  49.7169 310.4014 15.08853990 28081,6917.8380000000025,95.437,541.215,538.19,0.0
52477.0,STARLINK-3860,PAYLOAD,2022-11-03 20:44:18,15.08852725,0.0002197,53.2149,134.0977,46.3616,313.7558,0.00031295,4.698e-05,0.0,0 STARLINK-3860,1 52477U 22049AC  22307.86410595  .00004698  00000-0  31295-3 0  9994,2 52477  53.2149 134.0977 0002197  46.3616 313.7558 15.08852725 29171,6917.840999999999,95.437,541.226,538.187,0.0
52477.0,STARLINK-3860,PAYLOAD,2022-11-03 23:55:05,15.0884294,0.0002251,53.2149,133.5027,45.6649,314.4527,0.00010521,1.387e-05,0.0,0 STARLINK-3860,1 52477U 22049AC  22307.99658942  .00001387  00000-0  10521-3 0  9999,2 52477  53.2149 133.5027 0002251  45.6649 314.4527 15.08842940 28115,6917.871,95.437,541.294,538.179,0.0
52477.0,STARLINK-3860,PAYLOAD,2022-11-04 18:59:43,15.08838967,0.0002105,53.2147,129.9342,44.2604,315.8556,6.3748e-05,7.26e-06,0.0,0 STARLINK-3860,1 52477U 22049AC  22308.79147026  .00000726  00000-0  63748-4 0  9990,2 52477  53.2147 129.9342 0002105  44.2604 315.8556 15.08838967 29310,6917.884,95.438,541.205,538.2919999999998,0.0
52477.0,STARLINK-3860,PAYLOAD,2022-11-05 12:28:57,15.08835598,0.0002126,53.2147,126.6632,43.6849,316.4311,-3.1599e-05,-7.91e-06,0.0,0 STARLINK-3860,1 52477U 22049AC  22309.52011228 -.00000791  00000-0 -31599-4 0  9999,2 52477  53.2147 126.6632 0002126  43.6849 316.4311 15.08835598 28348,6917.894,95.438,541.23,538.288,0.0
52477.0,STARLINK-3860,PAYLOAD,2022-11-05 18:50:31,15.08828632,0.0002086,53.2161,125.4734,44.8724,315.2436,-0.00010489,-1.957e-05,0.0,0 STARLINK-3860,1 52477U 22049AC  22309.78508329 -.00001957  00000-0 -10489-3 0  9999,2 52477  53.2161 125.4734 0002086  44.8724 315.2436 15.08828632 28384,6917.915,95.438,541.2230000000002,538.337,0.0
52477.0,STARLINK-3860,PAYLOAD,2022-11-05 23:36:40,15.08830641,0.0002079,53.2162,124.5814,45.8895,314.2267,-0.00011663,-2.143e-05,0.0,0 STARLINK-3860,1 52477U 22049AC  22309.98380310 -.00002143  00000-0 -11663-3 0  9992,2 52477  53.2162 124.5814 0002079  45.8895 314.2267 15.08830641 29493,6917.909000000002,95.438,541.212,538.336,0.0
52477.0,STARLINK-3860,PAYLOAD,2022-11-06 20:16:41,15.08827432,0.000211,53.2162,120.7155,39.1936,320.9209,5.9852e-05,6.64e-06,0.0,0 STARLINK-3860,1 52477U 22049AC  22310.84492581  .00000664  00000-0  59852-4 0  9990,2 52477  53.2162 120.7155 0002110  39.1936 320.9209 15.08827432 28546,6917.919,95.438,541.243,538.3240000000002,0.0
52477.0,STARLINK-3860,PAYLOAD,2022-11-07 12:10:31,15.08863179,0.0002075,53.2163,117.7416,39.7684,320.346,-0.000106,-1.976e-05,0.0,0 STARLINK-3860,1 52477U 22049AC  22311.50730770 -.00001976  00000-0 -10600-3 0  9995,2 52477  53.2163 117.7416 0002075  39.7684 320.3460 15.08863179 28641,6917.81,95.436,541.11,538.239,0.0
